KUIPER-00044            
1 64505U 25134F   25354.94281572  .00002896  00000+0  40885-3 0  9994
2 64505  51.9002 234.8135 0012066  16.2079 343.9267 14.79906350 28227
KUIPER-00046            
1 64506U 25134G   25354.93453236  .00002653  00000+0  37031-3 0  9992
2 64506  51.8990 231.1857 0012863  25.3906 334.7686 14.80687721 28277
KUIPER-00047            
1 64507U 25134H   25354.83698391  .00002072  00000+0  28006-3 0  9992
2 64507  51.8967 203.1622 0009001  42.0614 318.1039 14.83024557 28658
KUIPER-00048            
1 64508U 25134J   25354.90928250 -.00003702  00000+0 -45664-3 0  9993
2 64508  51.8982 203.9510 0002892 158.3430 201.7655 14.79942923 28650
KUIPER-00049            
1 64509U 25134K   25355.02921639  .00002476  00000+0  35364-3 0  9993
2 64509  51.8987 216.8911 0003053  38.4268 321.6911 14.79947934 28486
KUIPER-00050            
1 64510U 25134L   25355.32466360  .00004319  00000+0  39583-3 0  9998
2 64510  51.8893 208.0316 0005020  64.4159 295.7329 14.96745520 28637
KUIPER-00051            
1 64511U 25134M   25355.03194120  .00002623  00000+0  37347-3 0  9991
2 64511  51.9007 214.4483 0003152  41.2034 318.9165 14.79886531 28513
KUIPER-00052            
1 64512U 25134N   25355.47197796  .00255671  00000+0  17557-2 0  9995
2 64512  51.8602 150.2448 0002502 132.2247 227.8967 15.73371078 29437
